[{"OBJECT_NAME":"LEMUR-2-UNTITLED-SC","OBJECT_ID":"2025-061A","EPOCH":"2026-03-09T21:24:38.388672","MEAN_MOTION":15.12695529,"ECCENTRICITY":0.00173727,"INCLINATION":97.5556,"RA_OF_ASC_NODE":45.0864,"ARG_OF_PERICENTER":245.603,"MEAN_ANOMALY":114.3388,"EPHEMERIS_TYPE":0,"CLASSIFICATION_TYPE":"U","NORAD_CAT_ID":63351,"ELEMENT_SET_NO":999,"REV_AT_EPOCH":5257,"BSTAR":0.00033295729,"MEAN_MOTION_DOT":5.783e-5,"MEAN_MOTION_DDOT":0},{"OBJECT_NAME":"DELTA 1 DEB","OBJECT_ID":"1977-065N","EPOCH":"2026-03-09T03:36:29.254176","MEAN_MOTION":13.49286315,"ECCENTRICITY":0.07561462,"INCLINATION":29.0749,"RA_OF_ASC_NODE":66.2884,"ARG_OF_PERICENTER":133.9552,"MEAN_ANOMALY":232.595,"EPHEMERIS_TYPE":0,"CLASSIFICATION_TYPE":"U","NORAD_CAT_ID":10184,"ELEMENT_SET_NO":999,"REV_AT_EPOCH":35374,"BSTAR":0.00019025098,"MEAN_MOTION_DOT":8.79e-6,"MEAN_MOTION_DDOT":0}]
